{"fetched_at":"2026-05-15T02:58:15Z","count":8847,"tles":[{"name":"GAOFEN-3 02","line1":"1 49495U 21109A   26134.33118164  .00000168  00000+0  64036-4 0  9994","line2":"2 49495  98.4102 142.9083 0004047  89.2805 270.8849 14.42212945235430","category":"Other"},{"name":"CSS (TIANHE)","line1":"1 48274U 21035A   26133.47815923  .00012315  00000+0  13972-3 0  9996","line2":"2 48274  41.4670 173.0841 0004121 296.9881  63.0537 15.62173368287748","category":"Other"},{"name":"ISS (NAUKA)","line1":"1 49044U 21066A   26134.19858747  .00005122  00000+0  10032-3 0  9999","line2":"2 49044  51.6312 108.3512 0007535  56.9254 303.2457 15.49211692566676","category":"ISS"},{"name":"YAM-3","line1":"1 48915U 21059AN  26134.26297033  .00008055  00000+0  15716-3 0  9992","line2":"2 48915  97.6990 319.0244 0006647 114.2095 245.9850 15.47777060271745","category":"Other"},{"name":"TYVAK-0173","line1":"1 48892U 21059P   26134.23154699  .00001144  00000+0  14892-3 0  9999","line2":"2 48892  96.0084 219.0303 0010478 136.9236 223.2804 14.81770058263214","category":"Other"},{"name":"TEIKYOSAT-4 (OORURI)","line1":"1 49396U 21102B   26134.04679020  .00001172  00000+0  77045-4 0  9998","line2":"2 49396  97.3697 164.8564 0013457  55.7579 304.4923 15.09380746247579","category":"Other"},{"name":"KOSEN-1","line1":"1 49402U 21102H   26134.05657551  .00005025  00000+0  19577-3 0  9998","line2":"2 49402  97.3217 176.8844 0012668 335.0334  25.0290 15.26347695248811","category":"Other"},{"name":"FENGYUN 3E","line1":"1 49008U 21062A   26134.30705940 -.00000034  00000+0  44705-5 0  9998","line2":"2 49008  98.7502 138.0929 0001830 143.9886 216.1414 14.19900962251779","category":"Weather"},{"name":"GLOBAL-13","line1":"1 49773U 21115BB  26133.51957067  .00012544  00000+0  27217-3 0  9992","line2":"2 49773  53.1973 219.2174 0003266  27.8341 332.2841 15.44797267250404","category":"Other"},{"name":"HIBARI","line1":"1 49400U 21102F   26134.09249264  .00007145  00000+0  24063-3 0  9999","line2":"2 49400  97.3271 180.3981 0010284 328.9237  31.1395 15.31018533248979","category":"Other"},{"name":"STARLINK-3100","line1":"1 49144U 21082Q   26134.25972335 -.00001009  00000+0 -76799-4 0  9990","line2":"2 49144  69.9987 129.1205 0003733 265.0822  94.9911 14.98325551255809","category":"Starlink"},{"name":"XW-3 (CAS-9)","line1":"1 50466U 21131B   26134.31646506  .00000130  00000+0  53898-4 0  9996","line2":"2 50466  98.4958 226.8927 0003948 182.5581 177.5588 14.41322913230237","category":"Other"},{"name":"HAIYANG-2D","line1":"1 48621U 21043A   26134.31394043 -.00000279  00000+0 -17913-3 0  9997","line2":"2 48621  66.0006  29.0331 0011396 273.1154  86.8610 13.83372107251868","category":"Other"},{"name":"CUTE","line1":"1 49263U 21088D   26134.23778351  .00131280  00000+0  73961-3 0  9998","line2":"2 49263  97.4194 230.6379 0001700 276.2054  83.9019 15.78818867257175","category":"Other"},{"name":"GLOBAL-12","line1":"1 49772U 21115BA  26134.27742787  .00019798  00000+0  33352-3 0  9991","line2":"2 49772  53.1952 207.3333 0002339 333.6931  26.3961 15.51723066250631","category":"Other"},{"name":"MANDRAKE 2 BAKER","line1":"1 48908U 21059AF  26134.07929469  .00019719  00000+0  26636-3 0  9990","line2":"2 48908  97.7018 323.9451 0004911 112.0594 248.1183 15.57800773271984","category":"Other"},{"name":"PACE-1","line1":"1 48909U 21059AG  26134.07934270  .00058494  00000+0  40105-3 0  9997","line2":"2 48909  97.6799 328.5236 0002824  97.0987 263.0598 15.74559853272426","category":"Other"},{"name":"SDGSAT 1","line1":"1 49387U 21100A   26134.32386571  .00001955  00000+0  94417-4 0  9994","line2":"2 49387  97.2668 182.5278 0009556  58.7038 301.5132 15.19746690250774","category":"Other"},{"name":"GLOBAL-14","line1":"1 49469U 21106A   26134.18692054  .00015411  00000+0  28221-3 0  9992","line2":"2 49469  42.0029 132.8740 0014491 152.6562 207.5047 15.48934738252851","category":"Other"}]}