OBJECT_NAME,OBJECT_ID,EPOCH,MEAN_MOTION,ECCENTRICITY,INCLINATION,RA_OF_ASC_NODE,ARG_OF_PERICENTER,MEAN_ANOMALY,EPHEMERIS_TYPE,CLASSIFICATION_TYPE,NORAD_CAT_ID,ELEMENT_SET_NO,REV_AT_EPOCH,BSTAR,MEAN_MOTION_DOT,MEAN_MOTION_DDOT
CSS (TIANHE),2021-035A,2026-05-13T11:28:32.957472,15.62173368,.00041216,41.4670,173.0841,296.9881,63.0537,0,U,48274,999,28774,.13972158E-3,.12315E-3,0
HAIYANG-2D,2021-043A,2026-05-14T07:32:04.453152,13.83372107,.00113967,66.0006,29.0331,273.1154,86.8610,0,U,48621,999,25186,-.17913047E-3,-.279E-5,0
TYVAK-0173,2021-059P,2026-05-14T05:33:25.659936,14.81770058,.00104782,96.0084,219.0303,136.9236,223.2804,0,U,48892,999,26321,.14891738E-3,.1144E-4,0
MANDRAKE 2 BAKER,2021-059AF,2026-05-14T01:54:11.061216,15.57800773,.00049117,97.7018,323.9451,112.0594,248.1183,0,U,48908,999,27198,.26636199E-3,.19719E-3,0
PACE-1,2021-059AG,2026-05-14T01:54:15.209280,15.74559853,.00028249,97.6799,328.5236,97.0987,263.0598,0,U,48909,999,27242,.40105153E-3,.58494E-3,0
YAM-3,2021-059AN,2026-05-14T06:18:40.636512,15.47777060,.00066479,97.6990,319.0244,114.2095,245.9850,0,U,48915,999,27174,.15715577E-3,.8055E-4,0
FENGYUN 3E,2021-062A,2026-05-14T07:22:09.932160,14.19900962,.00018304,98.7502,138.0929,143.9886,216.1414,0,U,49008,999,25177,.4470493E-5,-.34E-6,0
ISS (NAUKA),2021-066A,2026-05-14T04:45:57.957408,15.49211692,.00075358,51.6312,108.3512,56.9254,303.2457,0,U,49044,999,56667,.10032304E-3,.5122E-4,0
STARLINK-3100,2021-082Q,2026-05-14T06:14:00.097440,14.98325551,.00037332,69.9987,129.1205,265.0822,94.9911,0,U,49144,999,25580,-.76798841E-4,-.1009E-4,0
CUTE,2021-088D,2026-05-14T05:42:24.495264,15.78818867,.00017008,97.4194,230.6379,276.2054,83.9019,0,U,49263,999,25717,.73960577E-3,.13128E-2,0
SDGSAT 1,2021-100A,2026-05-14T07:46:21.997344,15.19746690,.00095563,97.2668,182.5278,58.7038,301.5132,0,U,49387,999,25077,.94416714E-4,.1955E-4,0
TEIKYOSAT-4 (OORURI),2021-102B,2026-05-14T01:07:22.673280,15.09380746,.00134573,97.3697,164.8564,55.7579,304.4923,0,U,49396,999,24757,.77044905E-4,.1172E-4,0
HIBARI,2021-102F,2026-05-14T02:13:11.364096,15.31018533,.00102845,97.3271,180.3981,328.9237,31.1395,0,U,49400,999,24897,.24062861E-3,.7145E-4,0
KOSEN-1,2021-102H,2026-05-14T01:21:28.124064,15.26347695,.00126683,97.3217,176.8844,335.0334,25.0290,0,U,49402,999,24881,.19577313E-3,.5025E-4,0
GLOBAL-14,2021-106A,2026-05-14T04:29:09.934656,15.48934738,.00144915,42.0029,132.8740,152.6562,207.5047,0,U,49469,999,25285,.28220788E-3,.15411E-3,0
GAOFEN-3 02,2021-109A,2026-05-14T07:56:54.093696,14.42212945,.00040471,98.4102,142.9083,89.2805,270.8849,0,U,49495,999,23543,.64035915E-4,.168E-5,0
GLOBAL-12,2021-115BA,2026-05-14T06:39:29.767968,15.51723066,.00023394,53.1952,207.3333,333.6931,26.3961,0,U,49772,999,25063,.33351553E-3,.19798E-3,0
GLOBAL-13,2021-115BB,2026-05-13T12:28:10.905888,15.44797267,.00032668,53.1973,219.2174,27.8341,332.2841,0,U,49773,999,25040,.27217484E-3,.12544E-3,0
XW-3 (CAS-9),2021-131B,2026-05-14T07:35:42.581184,14.41322913,.00039487,98.4958,226.8927,182.5581,177.5588,0,U,50466,999,23023,.53897764E-4,.13E-5,0
